1 25477U 98053C   19282.42325050  .00000087  00000-0  82952-4 0  9998
2 25477  45.0112 337.9365 0002972 262.1520  97.8989 14.32738980 99467
1 25477U 98053C   19282.63243778 +.00000091 +00000-0 +84351-4 0  9997
2 25477 045.0111 336.9534 0002977 263.0747 096.9760 14.32739063099188
1 25477U 98053C   19283.60864484  .00000091  00000-0  84273-4 0  9991
2 25477  45.0110 332.3651 0002994 266.6781  93.3723 14.32739397 99633
